[{"OBJECT_NAME":"TIANMU-1 17","OBJECT_ID":"2024-004C","EPOCH":"2026-03-09T22:46:08.436864","MEAN_MOTION":15.2591023,"ECCENTRICITY":0.00044458,"INCLINATION":97.4649,"RA_OF_ASC_NODE":254.963,"ARG_OF_PERICENTER":359.1343,"MEAN_ANOMALY":0.9887,"EPHEMERIS_TYPE":0,"CLASSIFICATION_TYPE":"U","NORAD_CAT_ID":58702,"ELEMENT_SET_NO":999,"REV_AT_EPOCH":12063,"BSTAR":0.00031387278,"MEAN_MOTION_DOT":7.979e-5,"MEAN_MOTION_DDOT":0},{"OBJECT_NAME":"STARLINK-31176","OBJECT_ID":"2024-005T","EPOCH":"2026-03-09T11:45:33.515136","MEAN_MOTION":15.26762477,"ECCENTRICITY":0.00013274,"INCLINATION":43.0008,"RA_OF_ASC_NODE":220.8392,"ARG_OF_PERICENTER":240.5194,"MEAN_ANOMALY":119.5525,"EPHEMERIS_TYPE":0,"CLASSIFICATION_TYPE":"U","NORAD_CAT_ID":58745,"ELEMENT_SET_NO":999,"REV_AT_EPOCH":12045,"BSTAR":-0.00012082743,"MEAN_MOTION_DOT":-3.501e-5,"MEAN_MOTION_DDOT":0}]
